{
  "type": "FeatureCollection",
  "features": [
    {
      "type": "Feature",
      "properties": {
        "norad_id": 41773,
        "name": "SKYSAT-C2",
        "group": "resource",
        "lat": -69.98825241936687,
        "lon": 43.73494759523301,
        "alt_km": 459.8482947408784,
        "timestamp": "2025-12-25T22:42:16.653816+00:00",
        "meta_object_name": "SKYSAT-C2",
        "meta_object_id": "2016-058D",
        "meta_epoch": "2025-12-25T15:12:14.992704",
        "meta_mean_motion": 15.37557399,
        "meta_eccentricity": 0.0002701,
        "meta_inclination": 97.0352,
        "meta_ra_of_asc_node": 23.6144,
        "meta_arg_of_pericenter": 355.0273,
        "meta_mean_anomaly": 5.0945,
        "meta_ephemeris_type": 0,
        "meta_classification_type": "U",
        "meta_norad_cat_id": 41773,
        "meta_element_set_no": 999,
        "meta_rev_at_epoch": 51834,
        "meta_bstar": 0.00033324,
        "meta_mean_motion_dot": 0.00012209,
        "meta_mean_motion_ddot": 0,
        "tle_line1": "1 41773U 16058D   25359.63350686  .00012209  00000+0  33324-3 0  9994",
        "tle_line2": "2 41773  97.0352  23.6144 0002701 355.0273   5.0945 15.37557399518343"
      },
      "geometry": {
        "type": "Point",
        "coordinates": [
          43.73494759523301,
          -69.98825241936687
        ]
      }
    },
    {
      "type": "Feature",
      "properties": {
        "norad_id": 41774,
        "name": "SKYSAT-C3",
        "group": "resource",
        "lat": 78.13119682258949,
        "lon": -111.5677286783897,
        "alt_km": 423.04367860864295,
        "timestamp": "2025-12-25T22:42:16.653827+00:00",
        "meta_object_name": "SKYSAT-C3",
        "meta_object_id": "2016-058E",
        "meta_epoch": "2025-12-25T16:03:24.261120",
        "meta_mean_motion": 15.44855882,
        "meta_eccentricity": 0.0002142,
        "meta_inclination": 96.9285,
        "meta_ra_of_asc_node": 32.8147,
        "meta_arg_of_pericenter": 106.7265,
        "meta_mean_anomaly": 253.422,
        "meta_ephemeris_type": 0,
        "meta_classification_type": "U",
        "meta_norad_cat_id": 41774,
        "meta_element_set_no": 999,
        "meta_rev_at_epoch": 51925,
        "meta_bstar": 0.00039494,
        "meta_mean_motion_dot": 0.00018467,
        "meta_mean_motion_ddot": 0,
        "tle_line1": "1 41774U 16058E   25359.66903080  .00018467  00000+0  39494-3 0  9996",
        "tle_line2": "2 41774  96.9285  32.8147 0002142 106.7265 253.4220 15.44855882519255"
      },
      "geometry": {
        "type": "Point",
        "coordinates": [
          -111.5677286783897,
          78.13119682258949
        ]
      }
    },
    {
      "type": "Feature",
      "properties": {
        "norad_id": 41785,
        "name": "ALSAT 1B",
        "group": "resource",
        "lat": 63.59743906976225,
        "lon": -152.84785344921653,
        "alt_km": 643.24136917949,
        "timestamp": "2025-12-25T22:42:16.653837+00:00",
        "meta_object_name": "ALSAT 1B",
        "meta_object_id": "2016-059C",
        "meta_epoch": "2025-12-25T18:55:16.142592",
        "meta_mean_motion": 14.72087007,
        "meta_eccentricity": 0.0010748,
        "meta_inclination": 97.7809,
        "meta_ra_of_asc_node": 11.0143,
        "meta_arg_of_pericenter": 66.8924,
        "meta_mean_anomaly": 293.3416,
        "meta_ephemeris_type": 0,
        "meta_classification_type": "U",
        "meta_norad_cat_id": 41785,
        "meta_element_set_no": 999,
        "meta_rev_at_epoch": 49506,
        "meta_bstar": 1.8726e-05,
        "meta_mean_motion_dot": 7.1e-07,
        "meta_mean_motion_ddot": 0,
        "tle_line1": "1 41785U 16059C   25359.78838128  .00000071  00000+0  18726-4 0  9990",
        "tle_line2": "2 41785  97.7809  11.0143 0010748  66.8924 293.3416 14.72087007495060"
      },
      "geometry": {
        "type": "Point",
        "coordinates": [
          -152.84785344921653,
          63.59743906976225
        ]
      }
    },
    {
      "type": "Feature",
      "properties": {
        "norad_id": 41787,
        "name": "PATHFINDER 1",
        "group": "resource",
        "lat": -31.797783934311596,
        "lon": 6.990628543786743,
        "alt_km": 669.4330453226539,
        "timestamp": "2025-12-25T22:42:16.653848+00:00",
        "meta_object_name": "PATHFINDER 1",
        "meta_object_id": "2016-059E",
        "meta_epoch": "2025-12-25T13:01:50.658816",
        "meta_mean_motion": 14.67343137,
        "meta_eccentricity": 0.0029583,
        "meta_inclination": 97.8139,
        "meta_ra_of_asc_node": 1.7224,
        "meta_arg_of_pericenter": 42.0938,
        "meta_mean_anomaly": 318.2533,
        "meta_ephemeris_type": 0,
        "meta_classification_type": "U",
        "meta_norad_cat_id": 41787,
        "meta_element_set_no": 999,
        "meta_rev_at_epoch": 49424,
        "meta_bstar": 0.00015941,
        "meta_mean_motion_dot": 8.59e-06,
        "meta_mean_motion_ddot": 0,
        "tle_line1": "1 41787U 16059E   25359.54294744  .00000859  00000+0  15941-3 0  9995",
        "tle_line2": "2 41787  97.8139   1.7224 0029583  42.0938 318.2533 14.67343137494242"
      },
      "geometry": {
        "type": "Point",
        "coordinates": [
          6.990628543786743,
          -31.797783934311596
        ]
      }
    },
    {
      "type": "Feature",
      "properties": {
        "norad_id": 41790,
        "name": "SCATSAT 1",
        "group": "resource",
        "lat": 25.832224851288785,
        "lon": -119.2442030167853,
        "alt_km": 616.2940412880916,
        "timestamp": "2025-12-25T22:42:16.653858+00:00",
        "meta_object_name": "SCATSAT 1",
        "meta_object_id": "2016-059H",
        "meta_epoch": "2025-12-25T17:08:45.595968",
        "meta_mean_motion": 14.78977295,
        "meta_eccentricity": 0.005646,
        "meta_inclination": 98.1446,
        "meta_ra_of_asc_node": 56.5458,
        "meta_arg_of_pericenter": 87.1429,
        "meta_mean_anomaly": 273.6241,
        "meta_ephemeris_type": 0,
        "meta_classification_type": "U",
        "meta_norad_cat_id": 41790,
        "meta_element_set_no": 999,
        "meta_rev_at_epoch": 7594,
        "meta_bstar": 0.00020775,
        "meta_mean_motion_dot": 1.519e-05,
        "meta_mean_motion_ddot": 0,
        "tle_line1": "1 41790U 16059H   25359.71441662  .00001519  00000+0  20775-3 0  9996",
        "tle_line2": "2 41790  98.1446  56.5458 0056460  87.1429 273.6241 14.78977295 75949"
      },
      "geometry": {
        "type": "Point",
        "coordinates": [
          -119.2442030167853,
          25.832224851288785
        ]
      }
    },
    {
      "type": "Feature",
      "properties": {
        "norad_id": 41875,
        "name": "GOKTURK 1A",
        "group": "resource",
        "lat": -10.078658515084296,
        "lon": 70.67698400875523,
        "alt_km": 688.6376187622282,
        "timestamp": "2025-12-25T22:42:16.653868+00:00",
        "meta_object_name": "GOKTURK 1A",
        "meta_object_id": "2016-073A",
        "meta_epoch": "2025-12-25T16:54:48.822336",
        "meta_mean_motion": 14.62794611,
        "meta_eccentricity": 0.0001255,
        "meta_inclination": 98.1425,
        "meta_ra_of_asc_node": 251.8972,
        "meta_arg_of_pericenter": 83.1406,
        "meta_mean_anomaly": 276.9939,
        "meta_ephemeris_type": 0,
        "meta_classification_type": "U",
        "meta_norad_cat_id": 41875,
        "meta_element_set_no": 999,
        "meta_rev_at_epoch": 48346,
        "meta_bstar": 0.00013225,
        "meta_mean_motion_dot": 6.28e-06,
        "meta_mean_motion_ddot": 0,
        "tle_line1": "1 41875U 16073A   25359.70473174  .00000628  00000+0  13225-3 0  9990",
        "tle_line2": "2 41875  98.1425 251.8972 0001255  83.1406 276.9939 14.62794611483466"
      },
      "geometry": {
        "type": "Point",
        "coordinates": [
          70.67698400875523,
          -10.078658515084296
        ]
      }
    },
    {
      "type": "Feature",
      "properties": {
        "norad_id": 41877,
        "name": "RESOURCESAT-2A",
        "group": "resource",
        "lat": 79.51016575012396,
        "lon": 13.203685994629078,
        "alt_km": 813.00845375876,
        "timestamp": "2025-12-25T22:42:16.653879+00:00",
        "meta_object_name": "RESOURCESAT-2A",
        "meta_object_id": "2016-074A",
        "meta_epoch": "2025-12-25T18:55:53.051808",
        "meta_mean_motion": 14.21605004,
        "meta_eccentricity": 0.0001616,
        "meta_inclination": 98.7736,
        "meta_ra_of_asc_node": 69.5678,
        "meta_arg_of_pericenter": 198.7326,
        "meta_mean_anomaly": 161.3792,
        "meta_ephemeris_type": 0,
        "meta_classification_type": "U",
        "meta_norad_cat_id": 41877,
        "meta_element_set_no": 999,
        "meta_rev_at_epoch": 46966,
        "meta_bstar": 3.6238e-05,
        "meta_mean_motion_dot": 3.5e-07,
        "meta_mean_motion_ddot": 0,
        "tle_line1": "1 41877U 16074A   25359.78880847  .00000035  00000+0  36238-4 0  9992",
        "tle_line2": "2 41877  98.7736  69.5678 0001616 198.7326 161.3792 14.21605004469663"
      },
      "geometry": {
        "type": "Point",
        "coordinates": [
          13.203685994629078,
          79.51016575012396
        ]
      }
    }
  ]
}